{
    "links": {
        "self": "http://www.neowsapp.com/rest/v1/neo/3709710?api_key=iIulBulltgU6a56xZRHN4H3l9WmuAYTsLGpBGhQ2"
    },
    "id": "3709710",
    "neo_reference_id": "3709710",
    "name": "(2015 BO515)",
    "designation": "2015 BO515",
    "nasa_jpl_url": "http://ssd.jpl.nasa.gov/sbdb.cgi?sstr=3709710",
    "absolute_magnitude_h": 24.2,
    "estimated_diameter": {
        "kilometers": {
            "estimated_diameter_min": 0.0384197891,
            "estimated_diameter_max": 0.0859092601
        },
        "meters": {
            "estimated_diameter_min": 38.4197891064,
            "estimated_diameter_max": 85.9092601232
        },
        "miles": {
            "estimated_diameter_min": 0.0238729428,
            "estimated_diameter_max": 0.0533815229
        },
        "feet": {
            "estimated_diameter_min": 126.0491808919,
            "estimated_diameter_max": 281.8545369825
        }
    },
    "is_potentially_hazardous_asteroid": false,
    "close_approach_data": [
        {
            "close_approach_date": "2015-01-24",
            "close_approach_date_full": "2015-Jan-24 14:39",
            "epoch_date_close_approach": 1422110340000,
            "relative_velocity": {
                "kilometers_per_second": "18.8889996622",
                "kilometers_per_hour": "68000.3987840186",
                "miles_per_hour": "42252.8033444365"
            },
            "miss_distance": {
                "astronomical": "0.0816479699",
                "lunar": "31.7610602911",
                "kilometers": "12214362.386864113",
                "miles": "7589652.8503182394"
            },
            "orbiting_body": "Earth"
        }
    ],
    "orbital_data": {
        "orbit_id": "4",
        "orbit_determination_date": "2017-04-06 08:35:55",
        "first_observation_date": "2015-01-27",
        "last_observation_date": "2015-02-08",
        "data_arc_in_days": 12,
        "observations_used": 11,
        "orbit_uncertainty": "9",
        "minimum_orbit_intersection": ".0815819",
        "jupiter_tisserand_invariant": "3.779",
        "epoch_osculation": "2457052.5",
        "eccentricity": ".4101865254461431",
        "semi_major_axis": "1.806312773386961",
        "inclination": "33.31588224126418",
        "ascending_node_longitude": "124.0916229800789",
        "orbital_period": "886.7227611851453",
        "perihelion_distance": "1.065387613002377",
        "perihelion_argument": "356.3844800244437",
        "aphelion_distance": "2.547237933771545",
        "perihelion_time": "2457043.974095902206",
        "mean_anomaly": "3.461426287404134",
        "mean_motion": ".4059893528827924",
        "equinox": "J2000",
        "orbit_class": {
            "orbit_class_type": "AMO",
            "orbit_class_description": "Near-Earth asteroid orbits similar to that of 1221 Amor",
            "orbit_class_range": "1.017 AU < q (perihelion) < 1.3 AU"
        }
    },
    "is_sentry_object": false
}